{
  "links" : {
    "next" : "https://api.nasa.gov/neo/rest/v1/feed?start_date=2012-04-09&end_date=2012-04-09&detailed=true&api_key=t0TVs3DtDT2H8Oy2Zy8m2eVrNsAVKAexjcZXUckd",
    "prev" : "https://api.nasa.gov/neo/rest/v1/feed?start_date=2012-04-07&end_date=2012-04-07&detailed=true&api_key=t0TVs3DtDT2H8Oy2Zy8m2eVrNsAVKAexjcZXUckd",
    "self" : "https://api.nasa.gov/neo/rest/v1/feed?start_date=2012-04-08&end_date=2012-04-08&detailed=true&api_key=t0TVs3DtDT2H8Oy2Zy8m2eVrNsAVKAexjcZXUckd"
  },
  "element_count" : 6,
  "near_earth_objects" : {
    "2012-04-08" : [ {
      "links" : {
        "self" : "https://api.nasa.gov/neo/rest/v1/neo/3739222?api_key=t0TVs3DtDT2H8Oy2Zy8m2eVrNsAVKAexjcZXUckd"
      },
      "neo_reference_id" : "3739222",
      "name" : "(2016 AT8)",
      "nasa_jpl_url" : "http://ssd.jpl.nasa.gov/sbdb.cgi?sstr=3739222",
      "absolute_magnitude_h" : 23.9,
      "estimated_diameter" : {
        "kilometers" : {
          "estimated_diameter_min" : 0.04411182,
          "estimated_diameter_max" : 0.0986370281
        },
        "meters" : {
          "estimated_diameter_min" : 44.1118199997,
          "estimated_diameter_max" : 98.6370281305
        },
        "miles" : {
          "estimated_diameter_min" : 0.0274098057,
          "estimated_diameter_max" : 0.0612901888
        },
        "feet" : {
          "estimated_diameter_min" : 144.7238235278,
          "estimated_diameter_max" : 323.6123073718
        }
      },
      "is_potentially_hazardous_asteroid" : false,
      "close_approach_data" : [ {
        "close_approach_date" : "2012-04-08",
        "epoch_date_close_approach" : 1333868400000,
        "relative_velocity" : {
          "kilometers_per_second" : "6.0606929956",
          "kilometers_per_hour" : "21818.4947840577",
          "miles_per_hour" : "13557.1641617941"
        },
        "miss_distance" : {
          "astronomical" : "0.4166671056",
          "lunar" : "162.0834960938",
          "kilometers" : "62332512",
          "miles" : "38731628"
        },
        "orbiting_body" : "Earth"
      } ],
      "orbital_data" : {
        "orbit_id" : "5",
        "orbit_determination_date" : "2017-04-06 08:29:26",
        "orbit_uncertainty" : "7",
        "minimum_orbit_intersection" : ".147487",
        "jupiter_tisserand_invariant" : "5.158",
        "epoch_osculation" : "2458000.5",
        "eccentricity" : ".1255801735374283",
        "semi_major_axis" : "1.239876126632301",
        "inclination" : "7.216601553007187",
        "ascending_node_longitude" : "108.0065965769578",
        "orbital_period" : "504.2731835934741",
        "perihelion_distance" : "1.084172267484902",
        "perihelion_argument" : "284.6847068479295",
        "aphelion_distance" : "1.3955799857797",
        "perihelion_time" : "2457815.488744206443",
        "mean_anomaly" : "132.0793059251273",
        "mean_motion" : ".7138987590706753",
        "equinox" : "J2000"
      }
    }, {
      "links" : {
        "self" : "https://api.nasa.gov/neo/rest/v1/neo/3148445?api_key=t0TVs3DtDT2H8Oy2Zy8m2eVrNsAVKAexjcZXUckd"
      },
      "neo_reference_id" : "3148445",
      "name" : "(2003 CQ20)",
      "nasa_jpl_url" : "http://ssd.jpl.nasa.gov/sbdb.cgi?sstr=3148445",
      "absolute_magnitude_h" : 20.4,
      "estimated_diameter" : {
        "kilometers" : {
          "estimated_diameter_min" : 0.2210828104,
          "estimated_diameter_max" : 0.4943561926
        },
        "meters" : {
          "estimated_diameter_min" : 221.0828103591,
          "estimated_diameter_max" : 494.3561926196
        },
        "miles" : {
          "estimated_diameter_min" : 0.137374447,
          "estimated_diameter_max" : 0.3071786018
        },
        "feet" : {
          "estimated_diameter_min" : 725.3373275385,
          "estimated_diameter_max" : 1621.9035709942
        }
      },
      "is_potentially_hazardous_asteroid" : false,
      "close_approach_data" : [ {
        "close_approach_date" : "2012-04-08",
        "epoch_date_close_approach" : 1333868400000,
        "relative_velocity" : {
          "kilometers_per_second" : "18.7551032412",
          "kilometers_per_hour" : "67518.3716682757",
          "miles_per_hour" : "41953.2904402128"
        },
        "miss_distance" : {
          "astronomical" : "0.4449007291",
          "lunar" : "173.0663757324",
          "kilometers" : "66556200",
          "miles" : "41356108"
        },
        "orbiting_body" : "Earth"
      } ],
      "orbital_data" : {
        "orbit_id" : "35",
        "orbit_determination_date" : "2017-04-06 09:14:20",
        "orbit_uncertainty" : "0",
        "minimum_orbit_intersection" : ".0638789",
        "jupiter_tisserand_invariant" : "3.543",
        "epoch_osculation" : "2458000.5",
        "eccentricity" : ".4977651297592961",
        "semi_major_axis" : "2.09436801273217",
        "inclination" : "15.81673761711992",
        "ascending_node_longitude" : "345.4966860554871",
        "orbital_period" : "1107.077237284893",
        "perihelion_distance" : "1.051864647110822",
        "perihelion_argument" : "172.6367093758945",
        "aphelion_distance" : "3.136871378353517",
        "perihelion_time" : "2458224.910111466882",
        "mean_anomaly" : "287.0261934693831",
        "mean_motion" : ".3251805636279724",
        "equinox" : "J2000"
      }
    }, {
      "links" : {
        "self" : "https://api.nasa.gov/neo/rest/v1/neo/3686082?api_key=t0TVs3DtDT2H8Oy2Zy8m2eVrNsAVKAexjcZXUckd"
      },
      "neo_reference_id" : "3686082",
      "name" : "(2014 QJ433)",
      "nasa_jpl_url" : "http://ssd.jpl.nasa.gov/sbdb.cgi?sstr=3686082",
      "absolute_magnitude_h" : 18.7,
      "estimated_diameter" : {
        "kilometers" : {
          "estimated_diameter_min" : 0.4836764882,
          "estimated_diameter_max" : 1.0815335068
        },
        "meters" : {
          "estimated_diameter_min" : 483.6764882185,
          "estimated_diameter_max" : 1081.533506775
        },
        "miles" : {
          "estimated_diameter_min" : 0.3005425432,
          "estimated_diameter_max" : 0.6720335566
        },
        "feet" : {
          "estimated_diameter_min" : 1586.8651696069,
          "estimated_diameter_max" : 3548.3383903678
        }
      },
      "is_potentially_hazardous_asteroid" : false,
      "close_approach_data" : [ {
        "close_approach_date" : "2012-04-08",
        "epoch_date_close_approach" : 1333868400000,
        "relative_velocity" : {
          "kilometers_per_second" : "22.5830475972",
          "kilometers_per_hour" : "81298.971349987",
          "miles_per_hour" : "50516.0191702183"
        },
        "miss_distance" : {
          "astronomical" : "0.3143998367",
          "lunar" : "122.3015365601",
          "kilometers" : "47033548",
          "miles" : "29225292"
        },
        "orbiting_body" : "Earth"
      } ],
      "orbital_data" : {
        "orbit_id" : "12",
        "orbit_determination_date" : "2017-04-06 08:38:53",
        "orbit_uncertainty" : "3",
        "minimum_orbit_intersection" : ".309935",
        "jupiter_tisserand_invariant" : "4.397",
        "epoch_osculation" : "2458000.5",
        "eccentricity" : ".5320576172799255",
        "semi_major_axis" : "1.442972697161914",
        "inclination" : "27.48200880783294",
        "ascending_node_longitude" : "17.5067586474488",
        "orbital_period" : "633.1193652937436",
        "perihelion_distance" : ".6752280821099583",
        "perihelion_argument" : "164.1087491269464",
        "aphelion_distance" : "2.210717312213869",
        "perihelion_time" : "2457916.353831173483",
        "mean_anomaly" : "47.8466185653496",
        "mean_motion" : ".5686131553296803",
        "equinox" : "J2000"
      }
    } ]
  }
}